*******************************************************************************
 Revised: Feb 05, 2022            STEREO-A Spacecraft                      -234
                              http://stereo.gsfc.nasa.gov/

 BACKGROUND:
  STEREO (Solar TErrestrial RElations Observatory) is the third mission in 
  NASA's Solar Terrestrial Probes program (STP). This two-year mission will use
  two nearly identical space-based observatories - one ahead of Earth in its 
  orbit, the other trailing behind - to provide stereoscopic measurements to 
  study the Sun and the nature of coronal mass ejections (CMEs).

 OBJECTIVES:
  * Understand the causes and mechanisms of coronal mass ejection (CME) 
     initiation.
  * Characterize the propagation of CMEs through the heliosphere.
  * Discover the mechanisms and sites of energetic particle acceleration in 
     the low corona and the interplanetary medium.
  * Improve the determination of the structure of the ambient solar wind. 

 SPACECRAFT:
  Launch (Delta II 7925-10L) = October 26, 2006 @ 1:53 UTC
  Mission end                = 2 year nominal mission after launch
  Dimensions                 = 1.14m x 1.22m (launch), 6.47m x 2.03m (deployed)
  Launch Mass                = 620 kg  (includes propellant)
  Power consumption          = 475 watts
  Data downlink              = 720 kilobits/sec
  Memory                     = 1 GB
  Attitude                   = control within 7", knowledge within 0.1"

 INSTRUMENTS (4 packages on each spacecraft):
  * Sun Earth Connection Coronal and Heliospheric Investigation (SECCHI)
  * STEREO/WAVES (SWAVES) radio burst tracker
  * In-situ Measurements of Particles and CME Transients (IMPACT)
  * PLAsma and SupraThermal Ion Composition (PLASTIC) 

 ORBIT:
  STEREO-A and STEREO-B will be launched together, then separate. The Moon's 
  gravity will be used to redirect the observatories to their appropriate 
  orbits, something the launch vehicle alone is not able to do.

  For the first three months after launch, the two observatories will fly in 
  highly elliptical orbits extending from very close to Earth to just beyond 
  the Moon's orbit. STEREO Mission Operations personnel at APL will 
  synchronize spacecraft orbits so that about two months after launch they 
  encounter the Moon, at which time one of them is close enough to use the 
  Moon's gravity to redirect it to a position "ahead"/leading the Earth. 
  Approximately one month later, the second observatory will encounter the 
  Moon again and be redirected to its orbit "behind"/trailing the Earth. 

 POST-LAUNCH SPACECRAFT TRAJECTORY: 
  Fit to tracking data until 2022-Feb-03, planning prediction thereafter.

  Trajectory name                    Start        Stop
  ---------------------------------  -----------  -----------
  ahead_2006_350_01.depm             2006-Oct-26  2006-Dec-15
  ahead_2008_037_01.depm             2006-Dec-15  2008-Jan-21
  ahead_2010_208_01.depm             2008-Jan-21  2010-Jul-16
  ahead_2012_138_01.depm             2010-Jul-16  2012-Apr-18
  ahead_2013_130_01.depm             2012-Apr-18  2013-Apr-25
  ahead_2015_219_01.depm             2013-Apr-25  2015-Jul-23
  ahead_2018_019_01.depm             2015-Jul-23  2017-Dec-21
  ahead_2020_224_01.depm             2017-Dec-21  2020-Aug-11
  ahead_2022_034_01.depm             2020-Aug-11  2022-Feb-03
  ahead_2022_034_01.epm              2022-Feb-03  2022-Jun-03
*******************************************************************************


*******************************************************************************
Ephemeris / WWW_USER Mon Feb  7 17:57:34 2022 Pasadena, USA      / Horizons    
*******************************************************************************
Target body name: STEREO-A (spacecraft) (-234)    {source: STEREO-A_merged}
Center body name: Sun (10)                        {source: DE441}
Center-site name: BODYCENTRIC
*******************************************************************************
Start time      : A.D. 2021-Jan-01 00:08:00.0000 UT      
Stop  time      : A.D. 2021-Dec-31 23:59:00.0000 UT      
Step-size       : 40 minutes
*******************************************************************************
Target pole/equ : No model available
Target radii    : (unavailable)                                                
Center geodetic : 0.00000000,0.00000000,0.0000000 {E-lon(deg),Lat(deg),Alt(km)}
Center cylindric: 0.00000000,0.00000000,0.0000000 {E-lon(deg),Dxy(km),Dz(km)}
Center pole/equ : IAU_SUN                         {East-longitude positive}
Center radii    : 696000.0 x 696000.0 x 696000.0 k{Equator, meridian, pole}    
Target primary  : Earth
Vis. interferer : None
Rel. light bend : Sun                             {source: DE441}
Rel. lght bnd GM: 1.3271E+11 km^3/s^2                                          
Atmos refraction: NO (AIRLESS)
RA format       : HMS
Time format     : CAL 
EOP file        : eop.220206.p220502                                           
EOP coverage    : DATA-BASED 1962-JAN-20 TO 2022-FEB-06. PREDICTS-> 2022-MAY-01
Units conversion: 1 au= 149597870.700 km, c= 299792.458 km/s, 1 day= 86400.0 s 
Table cut-offs 1: Elevation (-90.0deg=NO ),Airmass     n.a.    , Daylight (NO )
Table cut-offs 2: Solar elongation (  0.0,180.0=NO ),Local Hour Angle( 0.0=NO )
Table cut-offs 3: RA/DEC angular rate (     0.0=NO )                           
*******************************************************************************
 Date__(UT)__HR:MN     R.A._____(ICRF)_____DEC             delta      deldot
****************************************************************************
$$SOE
 2021-Mar-25 13:28     08 50 46.04 +17 32 40.7  0.96729617502213  -0.0104112
 2021-Mar-25 14:08     08 50 52.99 +17 32 12.9  0.96729600729774  -0.0104981
 2021-Mar-25 14:48     08 50 59.95 +17 31 45.0  0.96729583818007  -0.0105849
 2021-Mar-25 15:28     08 51 06.90 +17 31 17.1  0.96729566766907  -0.0106718
 2021-Mar-25 16:08     08 51 13.86 +17 30 49.2  0.96729549576482  -0.0107586
 2021-Mar-25 16:48     08 51 20.81 +17 30 21.3  0.96729532246736  -0.0108455
 2021-Mar-25 17:28     08 51 27.76 +17 29 53.4  0.96729514777681  -0.0109323
 2021-Mar-25 18:08     08 51 34.71 +17 29 25.5  0.96729497169309  -0.0110191
 2021-Mar-25 18:48     08 51 41.67 +17 28 57.5  0.96729479421635  -0.0111060
 2021-Mar-25 19:28     08 51 48.62 +17 28 29.5  0.96729461534656  -0.0111928
 2021-Mar-25 20:08     08 51 55.57 +17 28 01.6  0.96729443508381  -0.0112796
 2021-Mar-25 20:48     08 52 02.52 +17 27 33.6  0.96729425342816  -0.0113665
 2021-Mar-25 21:28     08 52 09.46 +17 27 05.6  0.96729407037961  -0.0114533
 2021-Mar-25 22:08     08 52 16.41 +17 26 37.5  0.96729388593818  -0.0115401
 2021-Mar-25 22:48     08 52 23.36 +17 26 09.5  0.96729370010402  -0.0116269
 2021-Mar-25 23:28     08 52 30.31 +17 25 41.4  0.96729351287710  -0.0117137
 2021-Mar-26 00:08     08 52 37.25 +17 25 13.4  0.96729332425748  -0.0118005
 2021-Mar-26 00:48     08 52 44.20 +17 24 45.3  0.96729313424523  -0.0118873
 2021-Mar-26 01:28     08 52 51.15 +17 24 17.2  0.96729294284038  -0.0119741
 2021-Mar-26 02:08     08 52 58.09 +17 23 49.1  0.96729275004295  -0.0120609
 2021-Mar-26 02:48     08 53 05.03 +17 23 20.9  0.96729255585303  -0.0121477
 2021-Mar-26 03:28     08 53 11.98 +17 22 52.8  0.96729236027069  -0.0122345
 2021-Mar-26 04:08     08 53 18.92 +17 22 24.6  0.96729216329594  -0.0123213
 2021-Mar-26 04:48     08 53 25.86 +17 21 56.4  0.96729196492880  -0.0124081
 2021-Mar-26 05:28     08 53 32.81 +17 21 28.3  0.96729176516938  -0.0124949
 2021-Mar-26 06:08     08 53 39.75 +17 21 00.0  0.96729156401774  -0.0125817
 2021-Mar-26 06:48     08 53 46.69 +17 20 31.8  0.96729136147386  -0.0126684
 2021-Mar-26 07:28     08 53 53.63 +17 20 03.6  0.96729115753782  -0.0127552
 2021-Mar-26 08:08     08 54 00.57 +17 19 35.3  0.96729095220972  -0.0128420
 2021-Mar-26 08:48     08 54 07.51 +17 19 07.1  0.96729074548957  -0.0129288
 2021-Mar-26 09:28     08 54 14.44 +17 18 38.8  0.96729053737737  -0.0130155
 2021-Mar-26 10:08     08 54 21.38 +17 18 10.5  0.96729032787327  -0.0131023
 2021-Mar-26 10:48     08 54 28.32 +17 17 42.2  0.96729011697729  -0.0131890
 2021-Mar-26 11:28     08 54 35.26 +17 17 13.9  0.96728990468947  -0.0132758
 2021-Mar-26 12:08     08 54 42.19 +17 16 45.5  0.96728969100986  -0.0133625
 2021-Mar-26 12:48     08 54 49.13 +17 16 17.2  0.96728947593852  -0.0134493
 2021-Mar-26 13:28     08 54 56.06 +17 15 48.8  0.96728925947551  -0.0135360
 2021-Mar-26 14:08     08 55 03.00 +17 15 20.4  0.96728904162088  -0.0136228
 2021-Mar-26 14:48     08 55 09.93 +17 14 52.0  0.96728882237469  -0.0137095
 2021-Mar-26 15:28     08 55 16.86 +17 14 23.6  0.96728860173698  -0.0137963
 2021-Mar-26 16:08     08 55 23.80 +17 13 55.2  0.96728837970783  -0.0138830
 2021-Mar-26 16:48     08 55 30.73 +17 13 26.7  0.96728815628727  -0.0139697
 2021-Mar-26 17:28     08 55 37.66 +17 12 58.3  0.96728793147537  -0.0140564
 2021-Mar-26 18:08     08 55 44.59 +17 12 29.8  0.96728770527219  -0.0141432
 2021-Mar-26 18:48     08 55 51.52 +17 12 01.3  0.96728747767778  -0.0142299
 2021-Mar-26 19:28     08 55 58.45 +17 11 32.8  0.96728724869221  -0.0143166
 2021-Mar-26 20:08     08 56 05.38 +17 11 04.3  0.96728701831551  -0.0144033
 2021-Mar-26 20:48     08 56 12.31 +17 10 35.7  0.96728678654777  -0.0144900
 2021-Mar-26 21:28     08 56 19.23 +17 10 07.2  0.96728655338902  -0.0145767
 2021-Mar-26 22:08     08 56 26.16 +17 09 38.6  0.96728631883934  -0.0146634
 2021-Mar-26 22:48     08 56 33.09 +17 09 10.0  0.96728608289878  -0.0147501
 2021-Mar-26 23:28     08 56 40.01 +17 08 41.5  0.96728584556740  -0.0148368
 2021-Mar-27 00:08     08 56 46.94 +17 08 12.8  0.96728560684526  -0.0149235
 2021-Mar-27 00:48     08 56 53.86 +17 07 44.2  0.96728536673243  -0.0150102
 2021-Mar-27 01:28     08 57 00.79 +17 07 15.6  0.96728512522895  -0.0150968
 2021-Mar-27 02:08     08 57 07.71 +17 06 46.9  0.96728488233490  -0.0151835
 2021-Mar-27 02:48     08 57 14.63 +17 06 18.3  0.96728463805032  -0.0152702
 2021-Mar-27 03:28     08 57 21.56 +17 05 49.6  0.96728439237530  -0.0153569
 2021-Mar-27 04:08     08 57 28.48 +17 05 20.9  0.96728414530987  -0.0154435
 2021-Mar-27 04:48     08 57 35.40 +17 04 52.2  0.96728389685412  -0.0155302
 2021-Mar-27 05:28     08 57 42.32 +17 04 23.5  0.96728364700810  -0.0156168
 2021-Mar-27 06:08     08 57 49.24 +17 03 54.7  0.96728339577187  -0.0157035
 2021-Mar-27 06:48     08 57 56.16 +17 03 26.0  0.96728314314550  -0.0157901
 2021-Mar-27 07:28     08 58 03.08 +17 02 57.2  0.96728288912904  -0.0158768
